{
  "norad_id": 63874,
  "name": "STARLINK-34052",
  "history": [
    {
      "epoch": "2026-03-28T16:09:14.343552Z",
      "apogee_km": 574.4673802771522,
      "perigee_km": 569.3357498022697,
      "latitude_deg": 5.061010805002403e-05,
      "longitude_deg": 118.31519711741507,
      "height_km": 574.4453315084752,
      "semi_major_axis_km": 6950.03856503971,
      "eccentricity": 0.00036918,
      "inclination_deg": 70.0024,
      "raan_deg": 186.7151,
      "arg_perigee_deg": 267.4216,
      "mean_anomaly_deg": 92.6521,
      "mean_motion_rev_day": 14.98379906
    }
  ]
}